IRIDIUM 33 DEB          
1 40998U 97051ABL 16320.43722429  .00000425  00000-0  13726-3 0  9990
2 40998  86.3885  13.5367 0009806 152.3543 264.6693 14.36804570594531
